[{"OBJECT_NAME":"STARLINK-6067","OBJECT_ID":"2023-078BB","EPOCH":"2026-03-09T23:48:08.788896","MEAN_MOTION":14.983264,"ECCENTRICITY":0.00026539,"INCLINATION":70.0005,"RA_OF_ASC_NODE":323.4976,"ARG_OF_PERICENTER":261.3525,"MEAN_ANOMALY":98.7334,"EPHEMERIS_TYPE":0,"CLASSIFICATION_TYPE":"U","NORAD_CAT_ID":56816,"ELEMENT_SET_NO":999,"REV_AT_EPOCH":15322,"BSTAR":9.7884525e-5,"MEAN_MOTION_DOT":1.075e-5,"MEAN_MOTION_DDOT":0},{"OBJECT_NAME":"ICEYE-X33","OBJECT_ID":"2024-149CJ","EPOCH":"2026-03-09T17:04:13.303776","MEAN_MOTION":15.0113344,"ECCENTRICITY":0.00060627,"INCLINATION":97.7033,"RA_OF_ASC_NODE":148.5516,"ARG_OF_PERICENTER":122.8099,"MEAN_ANOMALY":237.371,"EPHEMERIS_TYPE":0,"CLASSIFICATION_TYPE":"U","NORAD_CAT_ID":60548,"ELEMENT_SET_NO":999,"REV_AT_EPOCH":8528,"BSTAR":0.00045891369,"MEAN_MOTION_DOT":5.822e-5,"MEAN_MOTION_DDOT":0}]
